{
  "type": "FeatureCollection",
  "features": [
    {"type":"Feature","properties":{"district":"Ranchi","headquarter":"Ranchi","area_km2":5097},"geometry":{"type":"Polygon","coordinates":[[[85.17,23.30],[85.22,23.29],[85.28,23.25],[85.35,23.22],[85.42,23.18],[85.48,23.14],[85.52,23.10],[85.55,23.06],[85.58,23.01],[85.60,22.96],[85.58,22.90],[85.55,22.85],[85.50,22.80],[85.44,22.76],[85.38,22.73],[85.30,22.71],[85.22,22.72],[85.15,22.75],[85.09,22.79],[85.04,22.85],[85.01,22.91],[84.99,22.97],[85.00,23.04],[85.03,23.11],[85.07,23.17],[85.11,23.23],[85.15,23.28],[85.17,23.30]]]}},
    {"type":"Feature","properties":{"district":"Dhanbad","headquarter":"Dhanbad","area_km2":2062},"geometry":{"type":"Polygon","coordinates":[[[86.29,23.85],[86.35,23.83],[86.41,23.79],[86.45,23.74],[86.48,23.68],[86.47,23.61],[86.44,23.55],[86.39,23.50],[86.32,23.47],[86.25,23.46],[86.18,23.48],[86.12,23.52],[86.08,23.57],[86.06,23.63],[86.07,23.70],[86.10,23.76],[86.15,23.81],[86.22,23.84],[86.29,23.85]]]}},
    {"type":"Feature","properties":{"district":"East Singhbhum","headquarter":"Jamshedpur","area_km2":3533},"geometry":{"type":"Polygon","coordinates":[[[86.28,22.80],[86.34,22.77],[86.40,22.72],[86.45,22.66],[86.48,22.59],[86.46,22.52],[86.42,22.46],[86.36,22.42],[86.28,22.40],[86.20,22.41],[86.13,22.45],[86.08,22.51],[86.05,22.58],[86.05,22.65],[86.08,22.72],[86.14,22.77],[86.21,22.80],[86.28,22.80]]]}},
    {"type":"Feature","properties":{"district":"West Singhbhum","headquarter":"Chaibasa","area_km2":7224},"geometry":{"type":"Polygon","coordinates":[[[85.82,22.55],[85.90,22.51],[85.98,22.45],[86.03,22.38],[86.05,22.30],[86.03,22.22],[85.97,22.15],[85.89,22.10],[85.80,22.07],[85.70,22.07],[85.61,22.10],[85.54,22.16],[85.49,22.23],[85.47,22.31],[85.48,22.40],[85.52,22.48],[85.59,22.53],[85.68,22.55],[85.82,22.55]]]}},
    {"type":"Feature","properties":{"district":"Bokaro","headquarter":"Bokaro Steel City","area_km2":2883},"geometry":{"type":"Polygon","coordinates":[[[85.98,23.75],[86.04,23.71],[86.09,23.65],[86.11,23.58],[86.10,23.51],[86.06,23.45],[86.00,23.41],[85.92,23.39],[85.84,23.40],[85.77,23.44],[85.73,23.50],[85.72,23.57],[85.74,23.64],[85.79,23.70],[85.86,23.74],[85.92,23.76],[85.98,23.75]]]}},
    {"type":"Feature","properties":{"district":"Giridih","headquarter":"Giridih","area_km2":4854},"geometry":{"type":"Polygon","coordinates":[[[86.32,24.24],[86.39,24.20],[86.45,24.14],[86.49,24.07],[86.49,23.99],[86.46,23.92],[86.40,23.87],[86.32,23.84],[86.24,23.84],[86.16,23.87],[86.10,23.93],[86.07,24.00],[86.08,24.08],[86.11,24.15],[86.17,24.21],[86.25,24.24],[86.32,24.24]]]}},
    {"type":"Feature","properties":{"district":"Hazaribagh","headquarter":"Hazaribagh","area_km2":4302},"geometry":{"type":"Polygon","coordinates":[[[85.36,24.07],[85.43,24.03],[85.49,23.97],[85.52,23.90],[85.51,23.82],[85.47,23.76],[85.40,23.72],[85.32,23.70],[85.24,23.71],[85.17,23.75],[85.12,23.81],[85.10,23.88],[85.11,23.96],[85.15,24.02],[85.22,24.06],[85.29,24.08],[85.36,24.07]]]}},
    {"type":"Feature","properties":{"district":"Koderma","headquarter":"Koderma","area_km2":1312},"geometry":{"type":"Polygon","coordinates":[[[85.65,24.49],[85.70,24.46],[85.74,24.41],[85.75,24.36],[85.73,24.30],[85.68,24.26],[85.62,24.24],[85.56,24.24],[85.50,24.27],[85.46,24.32],[85.45,24.38],[85.47,24.44],[85.52,24.48],[85.59,24.50],[85.65,24.49]]]}},
    {"type":"Feature","properties":{"district":"Chatra","headquarter":"Chatra","area_km2":3706},"geometry":{"type":"Polygon","coordinates":[[[85.03,24.22],[85.10,24.18],[85.15,24.12],[85.17,24.05],[85.15,23.98],[85.10,23.93],[85.03,23.90],[84.96,23.90],[84.89,23.93],[84.84,23.99],[84.83,24.06],[84.85,24.13],[84.90,24.18],[84.97,24.21],[85.03,24.22]]]}},
    {"type":"Feature","properties":{"district":"Latehar","headquarter":"Latehar","area_km2":3622},"geometry":{"type":"Polygon","coordinates":[[[84.54,23.95],[84.61,23.91],[84.67,23.85],[84.70,23.78],[84.69,23.70],[84.64,23.64],[84.57,23.60],[84.49,23.59],[84.41,23.62],[84.36,23.68],[84.34,23.75],[84.36,23.83],[84.42,23.89],[84.48,23.93],[84.54,23.95]]]}},
    {"type":"Feature","properties":{"district":"Palamu","headquarter":"Medininagar","area_km2":4393},"geometry":{"type":"Polygon","coordinates":[[[84.18,24.13],[84.26,24.08],[84.32,24.01],[84.34,23.93],[84.31,23.85],[84.24,23.80],[84.16,23.77],[84.07,23.78],[83.99,23.82],[83.95,23.89],[83.94,23.97],[83.98,24.05],[84.05,24.10],[84.12,24.13],[84.18,24.13]]]}},
    {"type":"Feature","properties":{"district":"Garhwa","headquarter":"Garhwa","area_km2":4044},"geometry":{"type":"Polygon","coordinates":[[[83.93,24.17],[84.01,24.12],[84.07,24.05],[84.09,23.97],[84.07,23.89],[84.01,23.84],[83.92,23.81],[83.83,23.81],[83.75,23.85],[83.70,23.92],[83.69,24.00],[83.73,24.08],[83.80,24.14],[83.87,24.17],[83.93,24.17]]]}},
    {"type":"Feature","properties":{"district":"Saraikela Kharsawan","headquarter":"Saraikela","area_km2":2657},"geometry":{"type":"Polygon","coordinates":[[[85.96,22.73],[86.03,22.68],[86.07,22.62],[86.07,22.55],[86.04,22.49],[85.98,22.44],[85.90,22.42],[85.82,22.43],[85.75,22.47],[85.71,22.53],[85.71,22.60],[85.74,22.67],[85.80,22.72],[85.88,22.74],[85.96,22.73]]]}},
    {"type":"Feature","properties":{"district":"Simdega","headquarter":"Simdega","area_km2":3773},"geometry":{"type":"Polygon","coordinates":[[[84.54,22.65],[84.61,22.60],[84.66,22.53],[84.67,22.46],[84.64,22.39],[84.57,22.34],[84.48,22.32],[84.39,22.34],[84.32,22.39],[84.28,22.46],[84.28,22.54],[84.32,22.61],[84.39,22.66],[84.47,22.67],[84.54,22.65]]]}},
    {"type":"Feature","properties":{"district":"Gumla","headquarter":"Gumla","area_km2":5327},"geometry":{"type":"Polygon","coordinates":[[[84.72,23.13],[84.80,23.08],[84.86,23.01],[84.88,22.93],[84.86,22.85],[84.80,22.79],[84.72,22.75],[84.63,22.75],[84.55,22.79],[84.50,22.86],[84.49,22.94],[84.52,23.02],[84.58,23.08],[84.65,23.12],[84.72,23.13]]]}},
    {"type":"Feature","properties":{"district":"Khunti","headquarter":"Khunti","area_km2":2535},"geometry":{"type":"Polygon","coordinates":[[[85.27,22.77],[85.33,22.72],[85.37,22.66],[85.37,22.59],[85.33,22.53],[85.26,22.49],[85.18,22.48],[85.10,22.51],[85.04,22.57],[85.02,22.64],[85.04,22.72],[85.09,22.77],[85.17,22.79],[85.22,22.79],[85.27,22.77]]]}},
    {"type":"Feature","properties":{"district":"Dumka","headquarter":"Dumka","area_km2":3716},"geometry":{"type":"Polygon","coordinates":[[[87.23,24.29],[87.29,24.24],[87.33,24.17],[87.32,24.10],[87.27,24.04],[87.20,24.01],[87.12,24.01],[87.05,24.05],[87.01,24.11],[87.01,24.19],[87.05,24.25],[87.12,24.29],[87.18,24.30],[87.23,24.29]]]}},
    {"type":"Feature","properties":{"district":"Jamtara","headquarter":"Jamtara","area_km2":1811},"geometry":{"type":"Polygon","coordinates":[[[86.82,23.98],[86.87,23.94],[86.90,23.88],[86.89,23.82],[86.84,23.77],[86.77,23.75],[86.70,23.76],[86.64,23.80],[86.61,23.86],[86.62,23.92],[86.67,23.97],[86.74,23.99],[86.82,23.98]]]}},
    {"type":"Feature","properties":{"district":"Deoghar","headquarter":"Deoghar","area_km2":2479},"geometry":{"type":"Polygon","coordinates":[[[87.00,24.52],[87.06,24.47],[87.10,24.40],[87.09,24.33],[87.04,24.28],[86.97,24.25],[86.89,24.26],[86.83,24.31],[86.81,24.38],[86.83,24.45],[86.89,24.50],[86.95,24.52],[87.00,24.52]]]}},
    {"type":"Feature","properties":{"district":"Godda","headquarter":"Godda","area_km2":2110},"geometry":{"type":"Polygon","coordinates":[[[87.20,24.87],[87.26,24.82],[87.29,24.75],[87.27,24.68],[87.21,24.63],[87.14,24.61],[87.06,24.63],[87.01,24.69],[87.00,24.76],[87.03,24.83],[87.09,24.87],[87.15,24.88],[87.20,24.87]]]}},
    {"type":"Feature","properties":{"district":"Sahibganj","headquarter":"Sahibganj","area_km2":1702},"geometry":{"type":"Polygon","coordinates":[[[87.57,25.27],[87.62,25.21],[87.65,25.14],[87.62,25.07],[87.56,25.03],[87.48,25.02],[87.41,25.05],[87.37,25.12],[87.38,25.19],[87.43,25.25],[87.50,25.28],[87.57,25.27]]]}},
    {"type":"Feature","properties":{"district":"Pakur","headquarter":"Pakur","area_km2":1811},"geometry":{"type":"Polygon","coordinates":[[[87.31,24.67],[87.37,24.62],[87.40,24.55],[87.38,24.48],[87.32,24.44],[87.24,24.43],[87.17,24.47],[87.14,24.54],[87.15,24.61],[87.21,24.66],[87.28,24.68],[87.31,24.67]]]}},
    {"type":"Feature","properties":{"district":"Kharsawan","headquarter":"Kharsawan","area_km2":890},"geometry":{"type":"Polygon","coordinates":[[[85.82,22.76],[85.88,22.72],[85.91,22.66],[85.89,22.60],[85.84,22.56],[85.77,22.55],[85.71,22.58],[85.68,22.64],[85.70,22.71],[85.75,22.76],[85.82,22.76]]]}},
    {"type":"Feature","properties":{"district":"Lohardaga","headquarter":"Lohardaga","area_km2":1502},"geometry":{"type":"Polygon","coordinates":[[[84.76,23.48],[84.82,23.43],[84.85,23.36],[84.84,23.29],[84.79,23.23],[84.71,23.21],[84.63,23.23],[84.58,23.29],[84.57,23.37],[84.60,23.44],[84.67,23.48],[84.76,23.48]]]}}
  ]
}
